start=new Date('2022-12-25T00:00:00.000Z').valueOf();
sats=[{"BSTAR":"0.00001477100000","DECAY_DATE":null,"PERIAPSIS":"537.714","MEAN_MOTION_DOT":"-0.00000054","FILE":"3721442","COUNTRY_CODE":"US","REV_AT_EPOCH":"3434","EPOCH":"2022-12-24T18:16:59.259072","INCLINATION":"53.2193","MEAN_ANOMALY":"330.4240","SEMIMAJOR_AXIS":"6917.885","CENTER_NAME":"EARTH","APOAPSIS":"541.785","RCS_SIZE":"LARGE","TIME_SYSTEM":"UTC","MEAN_MOTION_DDOT":"0.0000000000000","RA_OF_ASC_NODE":"10.6113","TLE_LINE1":"1 52660U 22053E   22358.76179698 -.00000054  00000-0  14771-4 0  9998","MEAN_MOTION":"15.08838612","LAUNCH_DATE":"2022-05-18","NORAD_CAT_ID":"52660","PERIOD":"95.438","MEAN_ELEMENT_THEORY":"SGP4","CLASSIFICATION_TYPE":"U","REF_FRAME":"TEME","ARG_OF_PERICENTER":"29.6919","TLE_LINE2":"2 52660  53.2193  10.6113 0002942  29.6919 330.4240 15.08838612 34341","OBJECT_NAME":"STARLINK-4081","ECCENTRICITY":"0.00029420","OBJECT_TYPE":"PAYLOAD","GP_ID":"221380225","OBJECT_ID":"2022-053E","EPHEMERIS_TYPE":"0","SITE":"AFETR","ELEMENT_SET_NO":"999"},{"TLE_LINE2":"2 52661  53.2192  10.6341 0002704  25.4391 334.6734 15.08841828 34277","OBJECT_NAME":"STARLINK-4042","ARG_OF_PERICENTER":"25.4391","REF_FRAME":"TEME","CLASSIFICATION_TYPE":"U","OBJECT_TYPE":"PAYLOAD","ECCENTRICITY":"0.00027040","GP_ID":"221380977","SITE":"AFETR","ELEMENT_SET_NO":"999","EPHEMERIS_TYPE":"0","OBJECT_ID":"2022-053F","TLE_LINE1":"1 52661U 22053F   22358.75811537  .00001565  00000-0  11639-3 0  9999","MEAN_MOTION":"15.08841828","NORAD_CAT_ID":"52661","LAUNCH_DATE":"2022-05-18","MEAN_ELEMENT_THEORY":"SGP4","PERIOD":"95.437","RCS_SIZE":"LARGE","APOAPSIS":"541.610","SEMIMAJOR_AXIS":"6917.875","MEAN_ANOMALY":"334.6734","CENTER_NAME":"EARTH","RA_OF_ASC_NODE":"10.6341","MEAN_MOTION_DDOT":"0.0000000000000","TIME_SYSTEM":"UTC","PERIAPSIS":"537.869","BSTAR":"0.00011639000000","DECAY_DATE":null,"COUNTRY_CODE":"US","FILE":"3721442","MEAN_MOTION_DOT":"0.00001565","REV_AT_EPOCH":"3427","INCLINATION":"53.2192","EPOCH":"2022-12-24T18:11:41.167968"},{"NORAD_CAT_ID":"52662","LAUNCH_DATE":"2022-05-18","PERIOD":"95.438","MEAN_ELEMENT_THEORY":"SGP4","TLE_LINE1":"1 52662U 22053G   22358.75075683  .00000675  00000-0  60494-4 0  9999","MEAN_MOTION":"15.08838677","GP_ID":"221381727","OBJECT_ID":"2022-053G","EPHEMERIS_TYPE":"0","SITE":"AFETR","ELEMENT_SET_NO":"999","CLASSIFICATION_TYPE":"U","REF_FRAME":"TEME","ARG_OF_PERICENTER":"41.1543","OBJECT_NAME":"STARLINK-4044","TLE_LINE2":"2 52662  53.2142  10.6818 0002382  41.1543 318.9628 15.08838677 34273","ECCENTRICITY":"0.00023820","OBJECT_TYPE":"PAYLOAD","REV_AT_EPOCH":"3427","EPOCH":"2022-12-24T18:01:05.390112","INCLINATION":"53.2142","BSTAR":"0.00006049400000","DECAY_DATE":null,"PERIAPSIS":"538.102","MEAN_MOTION_DOT":"0.00000675","FILE":"3721442","COUNTRY_CODE":"US","MEAN_ANOMALY":"318.9628","SEMIMAJOR_AXIS":"6917.884","CENTER_NAME":"EARTH","APOAPSIS":"541.397","RCS_SIZE":"LARGE","TIME_SYSTEM":"UTC","MEAN_MOTION_DDOT":"0.0000000000000","RA_OF_ASC_NODE":"10.6818"},{"REV_AT_EPOCH":"3427","EPOCH":"2022-12-24T17:55:47.529696","INCLINATION":"53.2182","DECAY_DATE":null,"BSTAR":"0.00002158600000","PERIAPSIS":"537.693","FILE":"3721442","COUNTRY_CODE":"US","MEAN_MOTION_DOT":"0.00000055","APOAPSIS":"541.840","RCS_SIZE":"LARGE","CENTER_NAME":"EARTH","SEMIMAJOR_AXIS":"6917.901","MEAN_ANOMALY":"336.6182","RA_OF_ASC_NODE":"10.6938","TIME_SYSTEM":"UTC","MEAN_MOTION_DDOT":"0.0000000000000","NORAD_CAT_ID":"52663","LAUNCH_DATE":"2022-05-18","MEAN_ELEMENT_THEORY":"SGP4","PERIOD":"95.438","TLE_LINE1":"1 52663U 22053H   22358.74707789  .00000055  00000-0  21586-4 0  9999","MEAN_MOTION":"15.08833119","GP_ID":"221380475","ELEMENT_SET_NO":"999","SITE":"AFETR","EPHEMERIS_TYPE":"0","OBJECT_ID":"2022-053H","REF_FRAME":"TEME","ARG_OF_PERICENTER":"23.4947","TLE_LINE2":"2 52663  53.2182  10.6938 0002997  23.4947 336.6182 15.08833119 34272","OBJECT_NAME":"STARLINK-4037","CLASSIFICATION_TYPE":"U","OBJECT_TYPE":"PAYLOAD","ECCENTRICITY":"0.00029970"},{"MEAN_MOTION":"15.08836652","TLE_LINE1":"1 52664U 22053J   22358.75443925  .00000590  00000-0  55206-4 0  9990","PERIOD":"95.438","MEAN_ELEMENT_THEORY":"SGP4","LAUNCH_DATE":"2022-05-18","NORAD_CAT_ID":"52664","ECCENTRICITY":"0.00027360","OBJECT_TYPE":"PAYLOAD","CLASSIFICATION_TYPE":"U","TLE_LINE2":"2 52664  53.2191  10.6662 0002736  26.6777 333.4356 15.08836652 34277","OBJECT_NAME":"STARLINK-4070","ARG_OF_PERICENTER":"26.6777","REF_FRAME":"TEME","OBJECT_ID":"2022-053J","EPHEMERIS_TYPE":"0","SITE":"AFETR","ELEMENT_SET_NO":"999","GP_ID":"221380725","MEAN_MOTION_DOT":"0.00000590","COUNTRY_CODE":"US","FILE":"3721442","PERIAPSIS":"537.863","DECAY_DATE":null,"BSTAR":"0.00005520600000","INCLINATION":"53.2191","EPOCH":"2022-12-24T18:06:23.551200","REV_AT_EPOCH":"3427","MEAN_MOTION_DDOT":"0.0000000000000","TIME_SYSTEM":"UTC","RA_OF_ASC_NODE":"10.6662","SEMIMAJOR_AXIS":"6917.891","CENTER_NAME":"EARTH","MEAN_ANOMALY":"333.4356","APOAPSIS":"541.648","RCS_SIZE":"LARGE"},{"MEAN_ELEMENT_THEORY":"SGP4","PERIOD":"95.438","LAUNCH_DATE":"2022-05-18","NORAD_CAT_ID":"52665","MEAN_MOTION":"15.08832577","TLE_LINE1":"1 52665U 22053K   22358.73603568 -.00000296  00000-0 -45728-6 0  9995","SITE":"AFETR","ELEMENT_SET_NO":"999","OBJECT_ID":"2022-053K","EPHEMERIS_TYPE":"0","GP_ID":"221381477","OBJECT_TYPE":"PAYLOAD","ECCENTRICITY":"0.00026340","TLE_LINE2":"2 52665  53.2160  10.7472 0002634  31.5450 328.5699 15.08832577 34271","OBJECT_NAME":"STARLINK-4064","ARG_OF_PERICENTER":"31.5450","REF_FRAME":"TEME","CLASSIFICATION_TYPE":"U","INCLINATION":"53.2160","EPOCH":"2022-12-24T17:39:53.482752","REV_AT_EPOCH":"3427","COUNTRY_CODE":"US","FILE":"3721442","MEAN_MOTION_DOT":"-0.00000296","PERIAPSIS":"537.946","DECAY_DATE":null,"BSTAR":"-0.00000045728000","RA_OF_ASC_NODE":"10.7472","MEAN_MOTION_DDOT":"0.0000000000000","TIME_SYSTEM":"UTC","RCS_SIZE":"LARGE","APOAPSIS":"541.590","SEMIMAJOR_AXIS":"6917.903","CENTER_NAME":"EARTH","MEAN_ANOMALY":"328.5699"},{"NORAD_CAT_ID":"52666","LAUNCH_DATE":"2022-05-18","PERIOD":"95.437","MEAN_ELEMENT_THEORY":"SGP4","TLE_LINE1":"1 52666U 22053L   22358.74338834  .00001016  00000-0  81952-4 0  9994","MEAN_MOTION":"15.08845220","GP_ID":"221381228","OBJECT_ID":"2022-053L","EPHEMERIS_TYPE":"0","ELEMENT_SET_NO":"999","SITE":"AFETR","CLASSIFICATION_TYPE":"U","REF_FRAME":"TEME","ARG_OF_PERICENTER":"29.4759","OBJECT_NAME":"STARLINK-4079","TLE_LINE2":"2 52666  53.2184  10.7102 0002491  29.4759 330.6373 15.08845220 34279","ECCENTRICITY":"0.00024910","OBJECT_TYPE":"PAYLOAD","REV_AT_EPOCH":"3427","EPOCH":"2022-12-24T17:50:28.752576","INCLINATION":"53.2184","BSTAR":"0.00008195200000","DECAY_DATE":null,"PERIAPSIS":"538.006","MEAN_MOTION_DOT":"0.00001016","FILE":"3721442","COUNTRY_CODE":"US","CENTER_NAME":"EARTH","SEMIMAJOR_AXIS":"6917.864","MEAN_ANOMALY":"330.6373","RCS_SIZE":"LARGE","APOAPSIS":"541.453","TIME_SYSTEM":"UTC","MEAN_MOTION_DDOT":"0.0000000000000","RA_OF_ASC_NODE":"10.7102"},{"MEAN_MOTION":"15.08838224","TLE_LINE1":"1 52667U 22053M   22358.73235483  .00001081  00000-0  86009-4 0  9990","PERIOD":"95.438","MEAN_ELEMENT_THEORY":"SGP4","NORAD_CAT_ID":"52667","LAUNCH_DATE":"2022-05-18","ECCENTRICITY":"0.00026470","OBJECT_TYPE":"PAYLOAD","CLASSIFICATION_TYPE":"U","TLE_LINE2":"2 52667  53.2185  10.7633 0002647  33.4320 326.6839 15.08838224 34270","OBJECT_NAME":"STARLINK-4076","ARG_OF_PERICENTER":"33.4320","REF_FRAME":"TEME","EPHEMERIS_TYPE":"0","OBJECT_ID":"2022-053M","ELEMENT_SET_NO":"999","SITE":"AFETR","GP_ID":"221379977","MEAN_MOTION_DOT":"0.00001081","COUNTRY_CODE":"US","FILE":"3721442","PERIAPSIS":"537.920","BSTAR":"0.00008600900000","DECAY_DATE":null,"INCLINATION":"53.2185","EPOCH":"2022-12-24T17:34:35.457312","REV_AT_EPOCH":"3427","MEAN_MOTION_DDOT":"0.0000000000000","TIME_SYSTEM":"UTC","RA_OF_ASC_NODE":"10.7633","SEMIMAJOR_AXIS":"6917.886","CENTER_NAME":"EARTH","MEAN_ANOMALY":"326.6839","RCS_SIZE":"LARGE","APOAPSIS":"541.582"},{"RCS_SIZE":"LARGE","APOAPSIS":"541.775","CENTER_NAME":"EARTH","SEMIMAJOR_AXIS":"6917.910","MEAN_ANOMALY":"335.2304","RA_OF_ASC_NODE":"10.7327","MEAN_MOTION_DDOT":"0.0000000000000","TIME_SYSTEM":"UTC","REV_AT_EPOCH":"3427","INCLINATION":"53.2187","EPOCH":"2022-12-24T17:45:11.619648","PERIAPSIS":"537.776","BSTAR":"0.00005485800000","DECAY_DATE":null,"COUNTRY_CODE":"US","FILE":"3721442","MEAN_MOTION_DOT":"0.00000584","GP_ID":"221380226","SITE":"AFETR","ELEMENT_SET_NO":"999","OBJECT_ID":"2022-053N","EPHEMERIS_TYPE":"0","OBJECT_NAME":"STARLINK-4067","TLE_LINE2":"2 52668  53.2187  10.7327 0002890  24.8827 335.2304 15.08830222 34272","ARG_OF_PERICENTER":"24.8827","REF_FRAME":"TEME","CLASSIFICATION_TYPE":"U","OBJECT_TYPE":"PAYLOAD","ECCENTRICITY":"0.00028900","LAUNCH_DATE":"2022-05-18","NORAD_CAT_ID":"52668","MEAN_ELEMENT_THEORY":"SGP4","PERIOD":"95.438","TLE_LINE1":"1 52668U 22053N   22358.73971782  .00000584  00000-0  54858-4 0  9994","MEAN_MOTION":"15.08830222"},{"COUNTRY_CODE":"US","FILE":"3721442","MEAN_MOTION_DOT":"0.00002530","PERIAPSIS":"538.314","DECAY_DATE":null,"BSTAR":"0.00017695000000","INCLINATION":"53.2133","EPOCH":"2022-12-24T12:32:32.260704","REV_AT_EPOCH":"3423","RA_OF_ASC_NODE":"11.7086","MEAN_MOTION_DDOT":"0.0000000000000","TIME_SYSTEM":"UTC","APOAPSIS":"541.140","RCS_SIZE":"LARGE","SEMIMAJOR_AXIS":"6917.862","CENTER_NAME":"EARTH","MEAN_ANOMALY":"315.3552","MEAN_MOTION":"15.08846031","TLE_LINE1":"1 52669U 22053P   22358.52259561  .00002530  00000-0  17695-3 0  9996","MEAN_ELEMENT_THEORY":"SGP4","PERIOD":"95.437","LAUNCH_DATE":"2022-05-18","NORAD_CAT_ID":"52669","OBJECT_TYPE":"PAYLOAD","ECCENTRICITY":"0.00020430","OBJECT_NAME":"STARLINK-3972","TLE_LINE2":"2 52669  53.2133  11.7086 0002043  44.7605 315.3552 15.08846031 34237","REF_FRAME":"TEME","ARG_OF_PERICENTER":"44.7605","CLASSIFICATION_TYPE":"U","SITE":"AFETR","ELEMENT_SET_NO":"999","OBJECT_ID":"2022-053P","EPHEMERIS_TYPE":"0","GP_ID":"221380978"}];
